SENTINEL-6              
1 46984U 20086A   24064.68794982 -.00000048  00000+0  56756-4 0  9991
2 46984  66.0400  68.3140 0007881 270.9828  89.0285 12.80928903153442
